{
  "norad_id": 57093,
  "name": "STARLINK-6229",
  "history": [
    {
      "epoch": "2026-05-02T10:40:07.859424Z",
      "apogee_km": 486.49954049708595,
      "perigee_km": 484.61065243213943,
      "latitude_deg": 1.644723115391938e-05,
      "longitude_deg": 131.95228744098102,
      "height_km": 485.3666673200351,
      "semi_major_axis_km": 6863.692096464612,
      "eccentricity": 0.0001376,
      "inclination_deg": 43.0026,
      "raan_deg": 152.3475,
      "arg_perigee_deg": 267.9051,
      "mean_anomaly_deg": 92.1643,
      "mean_motion_rev_day": 15.26743475
    },
    {
      "epoch": "2026-05-03T11:47:28.173984Z",
      "apogee_km": 486.52177259217297,
      "perigee_km": 484.6218979865653,
      "latitude_deg": -4.505528471941465e-06,
      "longitude_deg": 108.18228178719647,
      "height_km": 485.4114940903774,
      "semi_major_axis_km": 6863.708835289369,
      "eccentricity": 0.0001384,
      "inclination_deg": 43.0012,
      "raan_deg": 146.4439,
      "arg_perigee_deg": 266.2116,
      "mean_anomaly_deg": 93.8577,
      "mean_motion_rev_day": 15.2673789
    },
    {
      "epoch": "2026-05-04T12:54:47.647872Z",
      "apogee_km": 486.39726334200896,
      "perigee_km": 484.7362470332537,
      "latitude_deg": 3.593025952394713e-06,
      "longitude_deg": 84.41651876765793,
      "height_km": 485.3939220923273,
      "semi_major_axis_km": 6863.703755187631,
      "eccentricity": 0.000121,
      "inclination_deg": 43.0036,
      "raan_deg": 140.541,
      "arg_perigee_deg": 266.5381,
      "mean_anomaly_deg": 93.5332,
      "mean_motion_rev_day": 15.26739585
    },
    {
      "epoch": "2026-05-05T01:28:27.986592Z",
      "apogee_km": 486.29244870492494,
      "perigee_km": 484.8654821557129,
      "latitude_deg": 5.310939745737009e-05,
      "longitude_deg": -107.46957868721512,
      "height_km": 485.36331765971187,
      "semi_major_axis_km": 6863.715965430319,
      "eccentricity": 0.00010395,
      "inclination_deg": 43.0034,
      "raan_deg": 137.5888,
      "arg_perigee_deg": 269.3975,
      "mean_anomaly_deg": 90.6758,
      "mean_motion_rev_day": 15.26735511
    },
    {
      "epoch": "2026-05-06T07:18:24.715008Z",
      "apogee_km": 486.14886819580715,
      "perigee_km": 484.9625475481789,
      "latitude_deg": 5.469130959258096e-05,
      "longitude_deg": 156.8078756804587,
      "height_km": 485.41204417481,
      "semi_major_axis_km": 6863.692707871993,
      "eccentricity": 8.642e-05,
      "inclination_deg": 43.002,
      "raan_deg": 130.5778,
      "arg_perigee_deg": 262.2667,
      "mean_anomaly_deg": 97.8087,
      "mean_motion_rev_day": 15.26743271
    },
    {
      "epoch": "2026-05-07T09:59:57.383232Z",
      "apogee_km": 486.44183866821186,
      "perigee_km": 484.6970844856787,
      "latitude_deg": -4.616970049710047e-06,
      "longitude_deg": 109.0525725051423,
      "height_km": 485.28326594316786,
      "semi_major_axis_km": 6863.706461576945,
      "eccentricity": 0.0001271,
      "inclination_deg": 43.0037,
      "raan_deg": 124.3049,
      "arg_perigee_deg": 274.1605,
      "mean_anomaly_deg": 85.9101,
      "mean_motion_rev_day": 15.26738682
    },
    {
      "epoch": "2026-05-08T15:49:54.014016Z",
      "apogee_km": 486.37813669460047,
      "perigee_km": 484.7212427277036,
      "latitude_deg": -4.5282627918869594e-05,
      "longitude_deg": 13.330090639492054,
      "height_km": 485.24724902129213,
      "semi_major_axis_km": 6863.686689711151,
      "eccentricity": 0.0001207,
      "inclination_deg": 43.004,
      "raan_deg": 117.2936,
      "arg_perigee_deg": 275.5081,
      "mean_anomaly_deg": 84.5632,
      "mean_motion_rev_day": 15.26745279
    },
    {
      "epoch": "2026-05-09T10:40:23.270592Z",
      "apogee_km": 486.32168278042354,
      "perigee_km": 484.74990171099944,
      "latitude_deg": 2.789896896474542e-05,
      "longitude_deg": 85.50657316515093,
      "height_km": 485.24646308533585,
      "semi_major_axis_km": 6863.672792245711,
      "eccentricity": 0.0001145,
      "inclination_deg": 43.0037,
      "raan_deg": 112.8657,
      "arg_perigee_deg": 274.8403,
      "mean_anomaly_deg": 85.2318,
      "mean_motion_rev_day": 15.26749916
    },
    {
      "epoch": "2026-05-10T14:56:08.671776Z",
      "apogee_km": 486.35745621305705,
      "perigee_km": 484.7568427373999,
      "latitude_deg": -6.498525149782514e-05,
      "longitude_deg": 13.763896594296739,
      "height_km": 485.2897399067224,
      "semi_major_axis_km": 6863.694149475228,
      "eccentricity": 0.0001166,
      "inclination_deg": 43.0049,
      "raan_deg": 106.223,
      "arg_perigee_deg": 273.1914,
      "mean_anomaly_deg": 86.8803,
      "mean_motion_rev_day": 15.2674279
    },
    {
      "epoch": "2026-05-11T14:29:16.605024Z",
      "apogee_km": 486.0785441147027,
      "perigee_km": 485.2164527816976,
      "latitude_deg": 4.063697893035988e-05,
      "longitude_deg": 13.97839892762508,
      "height_km": 485.43105624019205,
      "semi_major_axis_km": 6863.7844984482,
      "eccentricity": 6.28e-05,
      "inclination_deg": 43.0055,
      "raan_deg": 100.6877,
      "arg_perigee_deg": 269.0903,
      "mean_anomaly_deg": 90.9877,
      "mean_motion_rev_day": 15.26712645
    },
    {
      "epoch": "2026-05-12T09:19:45.752736Z",
      "apogee_km": 486.3299060375675,
      "perigee_km": 484.8006731674441,
      "latitude_deg": -5.0212616778953004e-05,
      "longitude_deg": 86.15516338256003,
      "height_km": 485.35360338007354,
      "semi_major_axis_km": 6863.7022896025055,
      "eccentricity": 0.0001114,
      "inclination_deg": 43.0055,
      "raan_deg": 96.2598,
      "arg_perigee_deg": 269.1641,
      "mean_anomaly_deg": 90.9082,
      "mean_motion_rev_day": 15.26740074
    },
    {
      "epoch": "2026-05-13T08:52:52.918752Z",
      "apogee_km": 486.2823122696309,
      "perigee_km": 484.8326999899364,
      "latitude_deg": -4.6581356564728454e-05,
      "longitude_deg": 86.37426352585429,
      "height_km": 485.3874937261624,
      "semi_major_axis_km": 6863.694506129784,
      "eccentricity": 0.0001056,
      "inclination_deg": 43.0043,
      "raan_deg": 90.726,
      "arg_perigee_deg": 265.8049,
      "mean_anomaly_deg": 94.2681,
      "mean_motion_rev_day": 15.26742671
    },
    {
      "epoch": "2026-05-14T05:17:33.279648Z",
      "apogee_km": 486.2156014676866,
      "perigee_km": 484.7817879710592,
      "latitude_deg": -4.874903625455643e-05,
      "longitude_deg": 134.57183260680856,
      "height_km": 485.2959587936315,
      "semi_major_axis_km": 6863.635694719373,
      "eccentricity": 0.00010445,
      "inclination_deg": 43.0036,
      "raan_deg": 85.93,
      "arg_perigee_deg": 268.3709,
      "mean_anomaly_deg": 91.7022,
      "mean_motion_rev_day": 15.26762294
    }
  ]
}